OBJECT_NAME,OBJECT_ID,EPOCH,MEAN_MOTION,ECCENTRICITY,INCLINATION,RA_OF_ASC_NODE,ARG_OF_PERICENTER,MEAN_ANOMALY,EPHEMERIS_TYPE,CLASSIFICATION_TYPE,NORAD_CAT_ID,ELEMENT_SET_NO,REV_AT_EPOCH,BSTAR,MEAN_MOTION_DOT,MEAN_MOTION_DDOT
SIRION PATHFINDER-2,2018-099B,2026-06-19T16:36:57.825216,15.14565833,.0007158,97.4247,219.6903,293.9955,66.0528,0,U,43759,999,41300,.2235E-3,.4059E-4,0
CORVUS BC4,2018-099K,2026-06-19T08:54:58.778496,15.12510338,.00080693,97.4063,213.2881,5.8995,354.2330,0,U,43767,999,41273,.18476874E-3,.3156E-4,0
M2 PATHFINDER,2020-037E,2026-06-19T13:46:25.067136,15.04681666,.00125074,97.8143,1.8325,139.3083,220.9080,0,U,45727,999,32585,.89866121E-4,.1202E-4,0
NETSAT-4,2020-068U,2026-06-19T00:06:19.215648,15.43912955,.00036223,97.8604,178.3912,329.8172,30.2865,0,U,46504,999,31605,.29598827E-3,.13363E-3,0
NETSAT-3,2020-068V,2026-06-19T11:11:10.043808,15.42747216,.00038889,97.8655,177.1036,352.2858,7.8328,0,U,46505,999,31603,.37774208E-3,.1643E-3,0
NETSAT-1,2020-068W,2026-06-19T11:35:06.578592,15.34687263,.00047818,97.8748,171.4257,25.4867,334.6610,0,U,46506,999,31565,.30210764E-3,.10074E-3,0
NETSAT-2,2020-068X,2026-06-19T13:25:58.285632,15.46083868,.00031486,97.8616,178.8939,19.0109,341.1256,0,U,46507,999,31610,.393457E-3,.19174E-3,0
GREENCUBE (IO-117),2022-080E,2026-06-19T16:11:15.141984,6.42583159,.0008827,70.1442,297.3799,289.0639,70.9064,0,U,53109,999,9222,0,-.3E-7,0
SITRO-AIS 5 (KATYS),2023-091L,2026-06-19T19:37:36.530688,15.29506613,.0012724,97.5056,234.7424,95.3545,264.9147,0,U,57176,999,16474,.34416E-3,.9792E-4,0
SITRO-AIS 6 (CHIRKIN),2023-091AC,2026-06-19T19:16:02.470368,15.25975014,.0013097,97.5062,233.8325,98.4940,261.7783,0,U,57192,999,16468,.31878E-3,.8137E-4,0
SITRO-AIS 8 (ANOKHIN),2023-091AD,2026-06-19T19:55:29.649792,15.32196953,.0011738,97.5051,236.3544,91.9531,268.3055,0,U,57193,999,16485,.3791E-3,.11735E-3,0
SITRO-AIS 7 (FARTUSHNIY),2023-091AE,2026-06-19T19:21:20.733408,15.25662167,.0012951,97.5059,233.6598,99.3896,260.8807,0,U,57194,999,16467,.3067E-3,.7752E-4,0
SITRO-AIS 10 (BURDAEV),2023-091AK,2026-06-19T20:24:53.119584,15.38696740,.000732,97.5076,241.4567,72.2733,287.9310,0,U,57199,999,16517,.43084E-3,.16418E-3,0
SITRO-AIS 9 (SHCHUKIN),2023-091AM,2026-06-19T19:30:27.145152,15.38200928,.0007593,97.5074,241.1459,72.7341,287.4734,0,U,57201,999,16515,.44017E-3,.16507E-3,0
SITRO-AIS 12 (SMIRENNIY),2023-091AQ,2026-06-19T20:49:53.150592,15.38496240,.0007091,97.5087,241.6713,67.4626,292.7369,0,U,57204,999,16518,.43714E-3,.16549E-3,0
SITRO-AIS 11 (SHEFFER),2023-091AU,2026-06-19T19:34:30.237600,15.38920344,.0007001,97.5085,241.8659,67.5806,292.6180,0,U,57208,999,16519,.43425E-3,.16669E-3,0
SITRO-AIS 25,2024-039R,2026-06-19T20:31:22.221984,14.93524453,.0143116,95.3905,236.9260,319.3382,39.7225,0,U,59066,999,12512,.18302E-3,.2321E-4,0
SITRO-AIS 26,2024-039S,2026-06-19T20:33:52.204608,14.93320239,.0143547,95.3909,236.8242,319.9363,39.1342,0,U,59067,999,12511,.16619E-3,.2095E-4,0
SITRO-AIS 27,2024-039T,2026-06-19T19:49:56.453376,14.93739993,.0142585,95.3913,237.0762,318.6432,40.4065,0,U,59068,999,12513,.13829E-3,.1752E-4,0
SITRO-AIS 28,2024-039U,2026-06-19T20:53:50.292672,14.93774711,.0142458,95.3912,237.1542,318.3169,40.7268,0,U,59071,999,12514,.16616E-3,.2115E-4,0
GRBBETA,2024-128C,2026-06-19T13:01:48.406368,15.06650427,.00403525,61.9881,208.0011,135.1213,225.3155,0,U,60237,999,10662,.15906067E-3,.2191E-4,0
OOV-CUBE (TUBSAT-30),2024-128F,2026-06-19T14:00:53.114976,15.02780984,.00443389,61.9930,217.2156,134.2886,226.1856,0,U,60240,999,10647,.11022768E-3,.1296E-4,0
ROBUSTA-3A (MEDITERRANEE),2024-128J,2026-06-19T09:12:43.855488,15.11694010,.00411361,61.9845,200.4756,128.3668,232.1135,0,U,60243,999,10675,.25696862E-3,.4256E-4,0
LASARSAT,2024-247Q,2026-06-19T11:53:29.592096,15.46491567,.00079381,44.9733,249.2437,344.7299,15.3350,0,U,62391,999,8367,.57165975E-3,.2878E-3,0
CROCUBE,2024-247T,2026-06-19T11:46:17.971392,15.48397693,.00077409,44.9701,246.5654,349.0739,10.9982,0,U,62394,999,8370,.60621754E-3,.32668E-3,0
FORESAIL-1 PRIME,2025-276DS,2026-06-19T10:25:32.106432,15.18719306,.00039613,97.4197,243.6644,98.6161,261.5522,0,U,66778,999,3074,.19871349E-3,.4058E-4,0
KNACKSAT-2,1998-067XZ,2026-06-19T14:13:09.931584,15.60167582,.00089348,51.6307,282.3774,225.7617,134.2643,0,U,67683,999,2065,.49084338E-3,.40473E-3,0
